{
  "fetched_at": "2026-06-15T05:08:00Z",
  "metar": [
    {"icaoId":"YMML","reportTime":"2026-06-15T05:00:00.000Z","rawOb":"METAR YMML 150500Z AUTO 02017KT 9999 // BKN022 16/11 Q1026","name":"Melbourne Intl, VI, AU","fltCat":"MVFR"},
    {"icaoId":"WMKK","reportTime":"2026-06-15T05:00:00.000Z","rawOb":"METAR WMKK 150500Z 23003KT 140V300 9999 FEW017CB SCT018 32/25 Q1010 NOSIG","name":"Kuala Lumpur Intl, SL, MY","fltCat":"VFR"},
    {"icaoId":"ZGGG","reportTime":"2026-06-15T05:00:00.000Z","rawOb":"METAR ZGGG 150500Z 33003MPS 280V030 9999 SCT020 32/26 Q1004 NOSIG","name":"Guangzhou/Baiyun Intl, GD, CN","fltCat":"VFR"},
    {"icaoId":"RJBB","reportTime":"2026-06-15T05:00:00.000Z","rawOb":"METAR RJBB 150500Z 36008KT 9999 FEW030 SCT100 24/18 Q1013 NOSIG","name":"Osaka/Kansai Intl, 28, JP","fltCat":"VFR"},
    {"icaoId":"YPPH","reportTime":"2026-06-15T05:00:00.000Z","rawOb":"METAR YPPH 150500Z 18009KT 9999 FEW022 SCT130 BKN150 13/08 Q1018","name":"Perth Intl, WA, AU","fltCat":"VFR"},
    {"icaoId":"YSSY","reportTime":"2026-06-15T05:00:00.000Z","rawOb":"METAR YSSY 150500Z 15007KT 9999 FEW035 SCT040 BKN050 18/09 Q1031","name":"Sydney Intl, NS, AU","fltCat":"VFR"}
  ],
  "taf": [
    {"icaoId":"ZGGG","issueTime":"2026-06-15T03:05:00.000Z","validTimeFrom":1781503200,"validTimeTo":1781611200,"rawTAF":"TAF ZGGG 150305Z 1506/1612 18003MPS 8000 BKN030 TX32/1507Z TX31/1607Z TN24/1522Z TEMPO 1506/1509 2500 +TSRA SCT026CB BKN033 TEMPO 1509/1513 SHRA FEW026CB BKN033 TEMPO 1518/1522 SHRA FEW026CB BKN033"},
    {"icaoId":"YMML","issueTime":"2026-06-15T02:25:00.000Z","validTimeFrom":1781492400,"validTimeTo":1781589600,"rawTAF":"TAF YMML 150225Z 1503/1606 01014KT 9999 SCT025 SCT035 FM150900 01010KT 9999 FEW015 FM151500 01017G27KT 9999 -SHRA FEW010 FM160100 01015G25KT 9999 NSW FEW020 FM160400 01014KT CAVOK"},
    {"icaoId":"YSSY","issueTime":"2026-06-15T02:05:00.000Z","validTimeFrom":1781492400,"validTimeTo":1781589600,"rawTAF":"TAF YSSY 150205Z 1503/1606 15010KT 9999 FEW030 BKN040 FM150400 09008KT 9999 SCT040 FM150800 03006KT 9999 FEW040 FM151100 33005KT CAVOK FM152300 36010KT CAVOK"},
    {"icaoId":"YPPH","issueTime":"2026-06-15T02:04:00.000Z","validTimeFrom":1781492400,"validTimeTo":1781589600,"rawTAF":"TAF YPPH 150204Z 1503/1606 18008KT 9999 -SHRA SCT040 FM151000 18008KT CAVOK INTER 1506/1510 5000 SHRA BKN030"},
    {"icaoId":"RJBB","issueTime":"2026-06-14T23:05:00.000Z","validTimeFrom":1781481600,"validTimeTo":1781589600,"rawTAF":"TAF RJBB 142305Z 1500/1606 03012KT 9999 FEW030 SCT050 BECMG 1506/1508 29006KT BECMG 1512/1515 08005KT BECMG 1600/1603 29006KT"},
    {"icaoId":"WMKK","issueTime":"2026-06-14T23:00:00.000Z","validTimeFrom":1781481600,"validTimeTo":1781589600,"rawTAF":"TAF WMKK 142300Z 1500/1606 VRB03KT 9000 FEW017CB PROB40 TEMPO 1500/1503 5000 TSRA FEW017CB SCT020"}
  ],
  "sigmet": []
}
